{
  "type": "FeatureCollection",
  "name": "titikujung_7hari",
  "crs": {
    "type": "name",
    "properties": {
      "name": "urn:ogc:def:crs:OGC:1.3:CRS84"
    }
  },
  "features": [
    {
      "type": "Feature",
      "properties": {
        "trip_id": 1,
        "kode_kendaraan": "K-04",
        "trayek": "Serang \u2013 Cilegon",
        "jenis": "Titik Awal",
        "hari": "Senin",
        "tanggal": "03-03-2025",
        "waktu": "03-03-2025 04:48",
        "jarak_km": 28.51,
        "liter_total": 9.15,
        "biaya_rp": 62220
      },
      "geometry": {
        "type": "Point",
        "coordinates": [
          106.184492,
          -6.120401
        ]
      }
    },
    {
      "type": "Feature",
      "properties": {
        "trip_id": 1,
        "kode_kendaraan": "K-04",
        "trayek": "Serang \u2013 Cilegon",
        "jenis": "Titik Akhir",
        "hari": "Senin",
        "tanggal": "03-03-2025",
        "waktu": "03-03-2025 05:31",
        "jarak_km": 28.51,
        "liter_total": 9.15,
        "biaya_rp": 62220
      },
      "geometry": {
        "type": "Point",
        "coordinates": [
          106.024787,
          -6.00289
        ]
      }
    },
    {
      "type": "Feature",
      "properties": {
        "trip_id": 2,
        "kode_kendaraan": "K-04",
        "trayek": "Serang \u2013 Cilegon",
        "jenis": "Titik Awal",
        "hari": "Senin",
        "tanggal": "03-03-2025",
        "waktu": "03-03-2025 10:05",
        "jarak_km": 28.72,
        "liter_total": 10.32,
        "biaya_rp": 70176
      },
      "geometry": {
        "type": "Point",
        "coordinates": [
          106.024787,
          -6.00289
        ]
      }
    },
    {
      "type": "Feature",
      "properties": {
        "trip_id": 2,
        "kode_kendaraan": "K-04",
        "trayek": "Serang \u2013 Cilegon",
        "jenis": "Titik Akhir",
        "hari": "Senin",
        "tanggal": "03-03-2025",
        "waktu": "03-03-2025 10:59",
        "jarak_km": 28.72,
        "liter_total": 10.32,
        "biaya_rp": 70176
      },
      "geometry": {
        "type": "Point",
        "coordinates": [
          106.184492,
          -6.120401
        ]
      }
    },
    {
      "type": "Feature",
      "properties": {
        "trip_id": 3,
        "kode_kendaraan": "K-04",
        "trayek": "Serang \u2013 Cilegon",
        "jenis": "Titik Awal",
        "hari": "Senin",
        "tanggal": "03-03-2025",
        "waktu": "03-03-2025 16:48",
        "jarak_km": 28.79,
        "liter_total": 12.12,
        "biaya_rp": 82416
      },
      "geometry": {
        "type": "Point",
        "coordinates": [
          106.024787,
          -6.00289
        ]
      }
    },
    {
      "type": "Feature",
      "properties": {
        "trip_id": 3,
        "kode_kendaraan": "K-04",
        "trayek": "Serang \u2013 Cilegon",
        "jenis": "Titik Akhir",
        "hari": "Senin",
        "tanggal": "03-03-2025",
        "waktu": "03-03-2025 18:35",
        "jarak_km": 28.79,
        "liter_total": 12.12,
        "biaya_rp": 82416
      },
      "geometry": {
        "type": "Point",
        "coordinates": [
          106.184492,
          -6.120401
        ]
      }
    },
    {
      "type": "Feature",
      "properties": {
        "trip_id": 4,
        "kode_kendaraan": "K-07",
        "trayek": "Serang \u2013 Anyer",
        "jenis": "Titik Awal",
        "hari": "Senin",
        "tanggal": "03-03-2025",
        "waktu": "03-03-2025 04:48",
        "jarak_km": 38.55,
        "liter_total": 12.41,
        "biaya_rp": 84388
      },
      "geometry": {
        "type": "Point",
        "coordinates": [
          106.184492,
          -6.120401
        ]
      }
    },
    {
      "type": "Feature",
      "properties": {
        "trip_id": 4,
        "kode_kendaraan": "K-07",
        "trayek": "Serang \u2013 Anyer",
        "jenis": "Titik Akhir",
        "hari": "Senin",
        "tanggal": "03-03-2025",
        "waktu": "03-03-2025 05:48",
        "jarak_km": 38.55,
        "liter_total": 12.41,
        "biaya_rp": 84388
      },
      "geometry": {
        "type": "Point",
        "coordinates": [
          105.922737,
          -6.053216
        ]
      }
    },
    {
      "type": "Feature",
      "properties": {
        "trip_id": 5,
        "kode_kendaraan": "K-07",
        "trayek": "Serang \u2013 Anyer",
        "jenis": "Titik Awal",
        "hari": "Senin",
        "tanggal": "03-03-2025",
        "waktu": "03-03-2025 10:09",
        "jarak_km": 38.67,
        "liter_total": 13.42,
        "biaya_rp": 91256
      },
      "geometry": {
        "type": "Point",
        "coordinates": [
          105.922737,
          -6.053216
        ]
      }
    },
    {
      "type": "Feature",
      "properties": {
        "trip_id": 5,
        "kode_kendaraan": "K-07",
        "trayek": "Serang \u2013 Anyer",
        "jenis": "Titik Akhir",
        "hari": "Senin",
        "tanggal": "03-03-2025",
        "waktu": "03-03-2025 11:28",
        "jarak_km": 38.67,
        "liter_total": 13.42,
        "biaya_rp": 91256
      },
      "geometry": {
        "type": "Point",
        "coordinates": [
          106.184492,
          -6.120401
        ]
      }
    },
    {
      "type": "Feature",
      "properties": {
        "trip_id": 6,
        "kode_kendaraan": "K-07",
        "trayek": "Serang \u2013 Anyer",
        "jenis": "Titik Awal",
        "hari": "Senin",
        "tanggal": "03-03-2025",
        "waktu": "03-03-2025 16:33",
        "jarak_km": 38.55,
        "liter_total": 15.35,
        "biaya_rp": 104380
      },
      "geometry": {
        "type": "Point",
        "coordinates": [
          105.922737,
          -6.053216
        ]
      }
    },
    {
      "type": "Feature",
      "properties": {
        "trip_id": 6,
        "kode_kendaraan": "K-07",
        "trayek": "Serang \u2013 Anyer",
        "jenis": "Titik Akhir",
        "hari": "Senin",
        "tanggal": "03-03-2025",
        "waktu": "03-03-2025 18:51",
        "jarak_km": 38.55,
        "liter_total": 15.35,
        "biaya_rp": 104380
      },
      "geometry": {
        "type": "Point",
        "coordinates": [
          106.184492,
          -6.120401
        ]
      }
    },
    {
      "type": "Feature",
      "properties": {
        "trip_id": 7,
        "kode_kendaraan": "K-12",
        "trayek": "Cilegon \u2013 Merak",
        "jenis": "Titik Awal",
        "hari": "Senin",
        "tanggal": "03-03-2025",
        "waktu": "03-03-2025 04:54",
        "jarak_km": 11.15,
        "liter_total": 3.54,
        "biaya_rp": 24072
      },
      "geometry": {
        "type": "Point",
        "coordinates": [
          106.024787,
          -6.00289
        ]
      }
    },
    {
      "type": "Feature",
      "properties": {
        "trip_id": 7,
        "kode_kendaraan": "K-12",
        "trayek": "Cilegon \u2013 Merak",
        "jenis": "Titik Akhir",
        "hari": "Senin",
        "tanggal": "03-03-2025",
        "waktu": "03-03-2025 05:15",
        "jarak_km": 11.15,
        "liter_total": 3.54,
        "biaya_rp": 24072
      },
      "geometry": {
        "type": "Point",
        "coordinates": [
          105.99756,
          -5.932069
        ]
      }
    },
    {
      "type": "Feature",
      "properties": {
        "trip_id": 8,
        "kode_kendaraan": "K-12",
        "trayek": "Cilegon \u2013 Merak",
        "jenis": "Titik Awal",
        "hari": "Senin",
        "tanggal": "03-03-2025",
        "waktu": "03-03-2025 10:26",
        "jarak_km": 11.32,
        "liter_total": 4.04,
        "biaya_rp": 27472
      },
      "geometry": {
        "type": "Point",
        "coordinates": [
          105.99756,
          -5.932069
        ]
      }
    },
    {
      "type": "Feature",
      "properties": {
        "trip_id": 8,
        "kode_kendaraan": "K-12",
        "trayek": "Cilegon \u2013 Merak",
        "jenis": "Titik Akhir",
        "hari": "Senin",
        "tanggal": "03-03-2025",
        "waktu": "03-03-2025 10:56",
        "jarak_km": 11.32,
        "liter_total": 4.04,
        "biaya_rp": 27472
      },
      "geometry": {
        "type": "Point",
        "coordinates": [
          106.024787,
          -6.00289
        ]
      }
    },
    {
      "type": "Feature",
      "properties": {
        "trip_id": 9,
        "kode_kendaraan": "K-12",
        "trayek": "Cilegon \u2013 Merak",
        "jenis": "Titik Awal",
        "hari": "Senin",
        "tanggal": "03-03-2025",
        "waktu": "03-03-2025 16:43",
        "jarak_km": 11.14,
        "liter_total": 4.53,
        "biaya_rp": 30804
      },
      "geometry": {
        "type": "Point",
        "coordinates": [
          105.99756,
          -5.932069
        ]
      }
    },
    {
      "type": "Feature",
      "properties": {
        "trip_id": 9,
        "kode_kendaraan": "K-12",
        "trayek": "Cilegon \u2013 Merak",
        "jenis": "Titik Akhir",
        "hari": "Senin",
        "tanggal": "03-03-2025",
        "waktu": "03-03-2025 17:39",
        "jarak_km": 11.14,
        "liter_total": 4.53,
        "biaya_rp": 30804
      },
      "geometry": {
        "type": "Point",
        "coordinates": [
          106.024787,
          -6.00289
        ]
      }
    },
    {
      "type": "Feature",
      "properties": {
        "trip_id": 10,
        "kode_kendaraan": "K-04",
        "trayek": "Serang \u2013 Cilegon",
        "jenis": "Titik Awal",
        "hari": "Selasa",
        "tanggal": "04-03-2025",
        "waktu": "04-03-2025 04:54",
        "jarak_km": 28.57,
        "liter_total": 9.13,
        "biaya_rp": 62084
      },
      "geometry": {
        "type": "Point",
        "coordinates": [
          106.184492,
          -6.120401
        ]
      }
    },
    {
      "type": "Feature",
      "properties": {
        "trip_id": 10,
        "kode_kendaraan": "K-04",
        "trayek": "Serang \u2013 Cilegon",
        "jenis": "Titik Akhir",
        "hari": "Selasa",
        "tanggal": "04-03-2025",
        "waktu": "04-03-2025 05:38",
        "jarak_km": 28.57,
        "liter_total": 9.13,
        "biaya_rp": 62084
      },
      "geometry": {
        "type": "Point",
        "coordinates": [
          106.024787,
          -6.00289
        ]
      }
    },
    {
      "type": "Feature",
      "properties": {
        "trip_id": 11,
        "kode_kendaraan": "K-04",
        "trayek": "Serang \u2013 Cilegon",
        "jenis": "Titik Awal",
        "hari": "Selasa",
        "tanggal": "04-03-2025",
        "waktu": "04-03-2025 10:25",
        "jarak_km": 28.75,
        "liter_total": 10.54,
        "biaya_rp": 71672
      },
      "geometry": {
        "type": "Point",
        "coordinates": [
          106.024787,
          -6.00289
        ]
      }
    },
    {
      "type": "Feature",
      "properties": {
        "trip_id": 11,
        "kode_kendaraan": "K-04",
        "trayek": "Serang \u2013 Cilegon",
        "jenis": "Titik Akhir",
        "hari": "Selasa",
        "tanggal": "04-03-2025",
        "waktu": "04-03-2025 11:21",
        "jarak_km": 28.75,
        "liter_total": 10.54,
        "biaya_rp": 71672
      },
      "geometry": {
        "type": "Point",
        "coordinates": [
          106.184492,
          -6.120401
        ]
      }
    },
    {
      "type": "Feature",
      "properties": {
        "trip_id": 12,
        "kode_kendaraan": "K-04",
        "trayek": "Serang \u2013 Cilegon",
        "jenis": "Titik Awal",
        "hari": "Selasa",
        "tanggal": "04-03-2025",
        "waktu": "04-03-2025 16:55",
        "jarak_km": 28.58,
        "liter_total": 11.52,
        "biaya_rp": 78336
      },
      "geometry": {
        "type": "Point",
        "coordinates": [
          106.184492,
          -6.120401
        ]
      }
    },
    {
      "type": "Feature",
      "properties": {
        "trip_id": 12,
        "kode_kendaraan": "K-04",
        "trayek": "Serang \u2013 Cilegon",
        "jenis": "Titik Akhir",
        "hari": "Selasa",
        "tanggal": "04-03-2025",
        "waktu": "04-03-2025 18:37",
        "jarak_km": 28.58,
        "liter_total": 11.52,
        "biaya_rp": 78336
      },
      "geometry": {
        "type": "Point",
        "coordinates": [
          106.024787,
          -6.00289
        ]
      }
    },
    {
      "type": "Feature",
      "properties": {
        "trip_id": 13,
        "kode_kendaraan": "K-07",
        "trayek": "Serang \u2013 Anyer",
        "jenis": "Titik Awal",
        "hari": "Selasa",
        "tanggal": "04-03-2025",
        "waktu": "04-03-2025 04:54",
        "jarak_km": 38.74,
        "liter_total": 12.31,
        "biaya_rp": 83708
      },
      "geometry": {
        "type": "Point",
        "coordinates": [
          106.184492,
          -6.120401
        ]
      }
    },
    {
      "type": "Feature",
      "properties": {
        "trip_id": 13,
        "kode_kendaraan": "K-07",
        "trayek": "Serang \u2013 Anyer",
        "jenis": "Titik Akhir",
        "hari": "Selasa",
        "tanggal": "04-03-2025",
        "waktu": "04-03-2025 05:54",
        "jarak_km": 38.74,
        "liter_total": 12.31,
        "biaya_rp": 83708
      },
      "geometry": {
        "type": "Point",
        "coordinates": [
          105.922737,
          -6.053216
        ]
      }
    },
    {
      "type": "Feature",
      "properties": {
        "trip_id": 14,
        "kode_kendaraan": "K-07",
        "trayek": "Serang \u2013 Anyer",
        "jenis": "Titik Awal",
        "hari": "Selasa",
        "tanggal": "04-03-2025",
        "waktu": "04-03-2025 10:26",
        "jarak_km": 38.65,
        "liter_total": 13.55,
        "biaya_rp": 92140
      },
      "geometry": {
        "type": "Point",
        "coordinates": [
          105.922737,
          -6.053216
        ]
      }
    },
    {
      "type": "Feature",
      "properties": {
        "trip_id": 14,
        "kode_kendaraan": "K-07",
        "trayek": "Serang \u2013 Anyer",
        "jenis": "Titik Akhir",
        "hari": "Selasa",
        "tanggal": "04-03-2025",
        "waktu": "04-03-2025 11:45",
        "jarak_km": 38.65,
        "liter_total": 13.55,
        "biaya_rp": 92140
      },
      "geometry": {
        "type": "Point",
        "coordinates": [
          106.184492,
          -6.120401
        ]
      }
    },
    {
      "type": "Feature",
      "properties": {
        "trip_id": 15,
        "kode_kendaraan": "K-07",
        "trayek": "Serang \u2013 Anyer",
        "jenis": "Titik Awal",
        "hari": "Selasa",
        "tanggal": "04-03-2025",
        "waktu": "04-03-2025 16:46",
        "jarak_km": 38.69,
        "liter_total": 15.18,
        "biaya_rp": 103224
      },
      "geometry": {
        "type": "Point",
        "coordinates": [
          106.184492,
          -6.120401
        ]
      }
    },
    {
      "type": "Feature",
      "properties": {
        "trip_id": 15,
        "kode_kendaraan": "K-07",
        "trayek": "Serang \u2013 Anyer",
        "jenis": "Titik Akhir",
        "hari": "Selasa",
        "tanggal": "04-03-2025",
        "waktu": "04-03-2025 19:16",
        "jarak_km": 38.69,
        "liter_total": 15.18,
        "biaya_rp": 103224
      },
      "geometry": {
        "type": "Point",
        "coordinates": [
          105.922737,
          -6.053216
        ]
      }
    },
    {
      "type": "Feature",
      "properties": {
        "trip_id": 16,
        "kode_kendaraan": "K-12",
        "trayek": "Cilegon \u2013 Merak",
        "jenis": "Titik Awal",
        "hari": "Selasa",
        "tanggal": "04-03-2025",
        "waktu": "04-03-2025 04:50",
        "jarak_km": 11.34,
        "liter_total": 3.58,
        "biaya_rp": 24344
      },
      "geometry": {
        "type": "Point",
        "coordinates": [
          106.024787,
          -6.00289
        ]
      }
    },
    {
      "type": "Feature",
      "properties": {
        "trip_id": 16,
        "kode_kendaraan": "K-12",
        "trayek": "Cilegon \u2013 Merak",
        "jenis": "Titik Akhir",
        "hari": "Selasa",
        "tanggal": "04-03-2025",
        "waktu": "04-03-2025 05:11",
        "jarak_km": 11.34,
        "liter_total": 3.58,
        "biaya_rp": 24344
      },
      "geometry": {
        "type": "Point",
        "coordinates": [
          105.99756,
          -5.932069
        ]
      }
    },
    {
      "type": "Feature",
      "properties": {
        "trip_id": 17,
        "kode_kendaraan": "K-12",
        "trayek": "Cilegon \u2013 Merak",
        "jenis": "Titik Awal",
        "hari": "Selasa",
        "tanggal": "04-03-2025",
        "waktu": "04-03-2025 10:05",
        "jarak_km": 11.11,
        "liter_total": 3.97,
        "biaya_rp": 26996
      },
      "geometry": {
        "type": "Point",
        "coordinates": [
          105.99756,
          -5.932069
        ]
      }
    },
    {
      "type": "Feature",
      "properties": {
        "trip_id": 17,
        "kode_kendaraan": "K-12",
        "trayek": "Cilegon \u2013 Merak",
        "jenis": "Titik Akhir",
        "hari": "Selasa",
        "tanggal": "04-03-2025",
        "waktu": "04-03-2025 10:33",
        "jarak_km": 11.11,
        "liter_total": 3.97,
        "biaya_rp": 26996
      },
      "geometry": {
        "type": "Point",
        "coordinates": [
          106.024787,
          -6.00289
        ]
      }
    },
    {
      "type": "Feature",
      "properties": {
        "trip_id": 18,
        "kode_kendaraan": "K-12",
        "trayek": "Cilegon \u2013 Merak",
        "jenis": "Titik Awal",
        "hari": "Selasa",
        "tanggal": "04-03-2025",
        "waktu": "04-03-2025 16:29",
        "jarak_km": 11.04,
        "liter_total": 4.59,
        "biaya_rp": 31212
      },
      "geometry": {
        "type": "Point",
        "coordinates": [
          106.024787,
          -6.00289
        ]
      }
    },
    {
      "type": "Feature",
      "properties": {
        "trip_id": 18,
        "kode_kendaraan": "K-12",
        "trayek": "Cilegon \u2013 Merak",
        "jenis": "Titik Akhir",
        "hari": "Selasa",
        "tanggal": "04-03-2025",
        "waktu": "04-03-2025 17:35",
        "jarak_km": 11.04,
        "liter_total": 4.59,
        "biaya_rp": 31212
      },
      "geometry": {
        "type": "Point",
        "coordinates": [
          105.99756,
          -5.932069
        ]
      }
    },
    {
      "type": "Feature",
      "properties": {
        "trip_id": 19,
        "kode_kendaraan": "K-04",
        "trayek": "Serang \u2013 Cilegon",
        "jenis": "Titik Awal",
        "hari": "Rabu",
        "tanggal": "05-03-2025",
        "waktu": "05-03-2025 04:57",
        "jarak_km": 28.54,
        "liter_total": 8.98,
        "biaya_rp": 61064
      },
      "geometry": {
        "type": "Point",
        "coordinates": [
          106.184492,
          -6.120401
        ]
      }
    },
    {
      "type": "Feature",
      "properties": {
        "trip_id": 19,
        "kode_kendaraan": "K-04",
        "trayek": "Serang \u2013 Cilegon",
        "jenis": "Titik Akhir",
        "hari": "Rabu",
        "tanggal": "05-03-2025",
        "waktu": "05-03-2025 05:39",
        "jarak_km": 28.54,
        "liter_total": 8.98,
        "biaya_rp": 61064
      },
      "geometry": {
        "type": "Point",
        "coordinates": [
          106.024787,
          -6.00289
        ]
      }
    },
    {
      "type": "Feature",
      "properties": {
        "trip_id": 20,
        "kode_kendaraan": "K-04",
        "trayek": "Serang \u2013 Cilegon",
        "jenis": "Titik Awal",
        "hari": "Rabu",
        "tanggal": "05-03-2025",
        "waktu": "05-03-2025 10:17",
        "jarak_km": 28.53,
        "liter_total": 10.15,
        "biaya_rp": 69020
      },
      "geometry": {
        "type": "Point",
        "coordinates": [
          106.024787,
          -6.00289
        ]
      }
    },
    {
      "type": "Feature",
      "properties": {
        "trip_id": 20,
        "kode_kendaraan": "K-04",
        "trayek": "Serang \u2013 Cilegon",
        "jenis": "Titik Akhir",
        "hari": "Rabu",
        "tanggal": "05-03-2025",
        "waktu": "05-03-2025 11:13",
        "jarak_km": 28.53,
        "liter_total": 10.15,
        "biaya_rp": 69020
      },
      "geometry": {
        "type": "Point",
        "coordinates": [
          106.184492,
          -6.120401
        ]
      }
    },
    {
      "type": "Feature",
      "properties": {
        "trip_id": 21,
        "kode_kendaraan": "K-04",
        "trayek": "Serang \u2013 Cilegon",
        "jenis": "Titik Awal",
        "hari": "Rabu",
        "tanggal": "05-03-2025",
        "waktu": "05-03-2025 16:51",
        "jarak_km": 28.7,
        "liter_total": 11.1,
        "biaya_rp": 75480
      },
      "geometry": {
        "type": "Point",
        "coordinates": [
          106.024787,
          -6.00289
        ]
      }
    },
    {
      "type": "Feature",
      "properties": {
        "trip_id": 21,
        "kode_kendaraan": "K-04",
        "trayek": "Serang \u2013 Cilegon",
        "jenis": "Titik Akhir",
        "hari": "Rabu",
        "tanggal": "05-03-2025",
        "waktu": "05-03-2025 18:39",
        "jarak_km": 28.7,
        "liter_total": 11.1,
        "biaya_rp": 75480
      },
      "geometry": {
        "type": "Point",
        "coordinates": [
          106.184492,
          -6.120401
        ]
      }
    },
    {
      "type": "Feature",
      "properties": {
        "trip_id": 22,
        "kode_kendaraan": "K-07",
        "trayek": "Serang \u2013 Anyer",
        "jenis": "Titik Awal",
        "hari": "Rabu",
        "tanggal": "05-03-2025",
        "waktu": "05-03-2025 04:51",
        "jarak_km": 38.8,
        "liter_total": 12.21,
        "biaya_rp": 83028
      },
      "geometry": {
        "type": "Point",
        "coordinates": [
          106.184492,
          -6.120401
        ]
      }
    },
    {
      "type": "Feature",
      "properties": {
        "trip_id": 22,
        "kode_kendaraan": "K-07",
        "trayek": "Serang \u2013 Anyer",
        "jenis": "Titik Akhir",
        "hari": "Rabu",
        "tanggal": "05-03-2025",
        "waktu": "05-03-2025 05:52",
        "jarak_km": 38.8,
        "liter_total": 12.21,
        "biaya_rp": 83028
      },
      "geometry": {
        "type": "Point",
        "coordinates": [
          105.922737,
          -6.053216
        ]
      }
    },
    {
      "type": "Feature",
      "properties": {
        "trip_id": 23,
        "kode_kendaraan": "K-07",
        "trayek": "Serang \u2013 Anyer",
        "jenis": "Titik Awal",
        "hari": "Rabu",
        "tanggal": "05-03-2025",
        "waktu": "05-03-2025 10:28",
        "jarak_km": 38.73,
        "liter_total": 14.01,
        "biaya_rp": 95268
      },
      "geometry": {
        "type": "Point",
        "coordinates": [
          105.922737,
          -6.053216
        ]
      }
    },
    {
      "type": "Feature",
      "properties": {
        "trip_id": 23,
        "kode_kendaraan": "K-07",
        "trayek": "Serang \u2013 Anyer",
        "jenis": "Titik Akhir",
        "hari": "Rabu",
        "tanggal": "05-03-2025",
        "waktu": "05-03-2025 11:48",
        "jarak_km": 38.73,
        "liter_total": 14.01,
        "biaya_rp": 95268
      },
      "geometry": {
        "type": "Point",
        "coordinates": [
          106.184492,
          -6.120401
        ]
      }
    },
    {
      "type": "Feature",
      "properties": {
        "trip_id": 24,
        "kode_kendaraan": "K-07",
        "trayek": "Serang \u2013 Anyer",
        "jenis": "Titik Awal",
        "hari": "Rabu",
        "tanggal": "05-03-2025",
        "waktu": "05-03-2025 16:28",
        "jarak_km": 38.75,
        "liter_total": 14.97,
        "biaya_rp": 101796
      },
      "geometry": {
        "type": "Point",
        "coordinates": [
          105.922737,
          -6.053216
        ]
      }
    },
    {
      "type": "Feature",
      "properties": {
        "trip_id": 24,
        "kode_kendaraan": "K-07",
        "trayek": "Serang \u2013 Anyer",
        "jenis": "Titik Akhir",
        "hari": "Rabu",
        "tanggal": "05-03-2025",
        "waktu": "05-03-2025 18:58",
        "jarak_km": 38.75,
        "liter_total": 14.97,
        "biaya_rp": 101796
      },
      "geometry": {
        "type": "Point",
        "coordinates": [
          106.184492,
          -6.120401
        ]
      }
    },
    {
      "type": "Feature",
      "properties": {
        "trip_id": 25,
        "kode_kendaraan": "K-12",
        "trayek": "Cilegon \u2013 Merak",
        "jenis": "Titik Awal",
        "hari": "Rabu",
        "tanggal": "05-03-2025",
        "waktu": "05-03-2025 04:48",
        "jarak_km": 11.35,
        "liter_total": 3.61,
        "biaya_rp": 24548
      },
      "geometry": {
        "type": "Point",
        "coordinates": [
          106.024787,
          -6.00289
        ]
      }
    },
    {
      "type": "Feature",
      "properties": {
        "trip_id": 25,
        "kode_kendaraan": "K-12",
        "trayek": "Cilegon \u2013 Merak",
        "jenis": "Titik Akhir",
        "hari": "Rabu",
        "tanggal": "05-03-2025",
        "waktu": "05-03-2025 05:10",
        "jarak_km": 11.35,
        "liter_total": 3.61,
        "biaya_rp": 24548
      },
      "geometry": {
        "type": "Point",
        "coordinates": [
          105.99756,
          -5.932069
        ]
      }
    },
    {
      "type": "Feature",
      "properties": {
        "trip_id": 26,
        "kode_kendaraan": "K-12",
        "trayek": "Cilegon \u2013 Merak",
        "jenis": "Titik Awal",
        "hari": "Rabu",
        "tanggal": "05-03-2025",
        "waktu": "05-03-2025 10:13",
        "jarak_km": 11.28,
        "liter_total": 4.13,
        "biaya_rp": 28084
      },
      "geometry": {
        "type": "Point",
        "coordinates": [
          105.99756,
          -5.932069
        ]
      }
    },
    {
      "type": "Feature",
      "properties": {
        "trip_id": 26,
        "kode_kendaraan": "K-12",
        "trayek": "Cilegon \u2013 Merak",
        "jenis": "Titik Akhir",
        "hari": "Rabu",
        "tanggal": "05-03-2025",
        "waktu": "05-03-2025 10:40",
        "jarak_km": 11.28,
        "liter_total": 4.13,
        "biaya_rp": 28084
      },
      "geometry": {
        "type": "Point",
        "coordinates": [
          106.024787,
          -6.00289
        ]
      }
    },
    {
      "type": "Feature",
      "properties": {
        "trip_id": 27,
        "kode_kendaraan": "K-12",
        "trayek": "Cilegon \u2013 Merak",
        "jenis": "Titik Awal",
        "hari": "Rabu",
        "tanggal": "05-03-2025",
        "waktu": "05-03-2025 16:46",
        "jarak_km": 11.15,
        "liter_total": 4.58,
        "biaya_rp": 31144
      },
      "geometry": {
        "type": "Point",
        "coordinates": [
          105.99756,
          -5.932069
        ]
      }
    },
    {
      "type": "Feature",
      "properties": {
        "trip_id": 27,
        "kode_kendaraan": "K-12",
        "trayek": "Cilegon \u2013 Merak",
        "jenis": "Titik Akhir",
        "hari": "Rabu",
        "tanggal": "05-03-2025",
        "waktu": "05-03-2025 17:40",
        "jarak_km": 11.15,
        "liter_total": 4.58,
        "biaya_rp": 31144
      },
      "geometry": {
        "type": "Point",
        "coordinates": [
          106.024787,
          -6.00289
        ]
      }
    },
    {
      "type": "Feature",
      "properties": {
        "trip_id": 28,
        "kode_kendaraan": "K-04",
        "trayek": "Serang \u2013 Cilegon",
        "jenis": "Titik Awal",
        "hari": "Kamis",
        "tanggal": "06-03-2025",
        "waktu": "06-03-2025 04:58",
        "jarak_km": 28.64,
        "liter_total": 9.21,
        "biaya_rp": 62628
      },
      "geometry": {
        "type": "Point",
        "coordinates": [
          106.184492,
          -6.120401
        ]
      }
    },
    {
      "type": "Feature",
      "properties": {
        "trip_id": 28,
        "kode_kendaraan": "K-04",
        "trayek": "Serang \u2013 Cilegon",
        "jenis": "Titik Akhir",
        "hari": "Kamis",
        "tanggal": "06-03-2025",
        "waktu": "06-03-2025 05:41",
        "jarak_km": 28.64,
        "liter_total": 9.21,
        "biaya_rp": 62628
      },
      "geometry": {
        "type": "Point",
        "coordinates": [
          106.024787,
          -6.00289
        ]
      }
    },
    {
      "type": "Feature",
      "properties": {
        "trip_id": 29,
        "kode_kendaraan": "K-04",
        "trayek": "Serang \u2013 Cilegon",
        "jenis": "Titik Awal",
        "hari": "Kamis",
        "tanggal": "06-03-2025",
        "waktu": "06-03-2025 10:08",
        "jarak_km": 28.52,
        "liter_total": 10.39,
        "biaya_rp": 70652
      },
      "geometry": {
        "type": "Point",
        "coordinates": [
          106.024787,
          -6.00289
        ]
      }
    },
    {
      "type": "Feature",
      "properties": {
        "trip_id": 29,
        "kode_kendaraan": "K-04",
        "trayek": "Serang \u2013 Cilegon",
        "jenis": "Titik Akhir",
        "hari": "Kamis",
        "tanggal": "06-03-2025",
        "waktu": "06-03-2025 11:06",
        "jarak_km": 28.52,
        "liter_total": 10.39,
        "biaya_rp": 70652
      },
      "geometry": {
        "type": "Point",
        "coordinates": [
          106.184492,
          -6.120401
        ]
      }
    },
    {
      "type": "Feature",
      "properties": {
        "trip_id": 30,
        "kode_kendaraan": "K-04",
        "trayek": "Serang \u2013 Cilegon",
        "jenis": "Titik Awal",
        "hari": "Kamis",
        "tanggal": "06-03-2025",
        "waktu": "06-03-2025 16:39",
        "jarak_km": 28.69,
        "liter_total": 11.57,
        "biaya_rp": 78676
      },
      "geometry": {
        "type": "Point",
        "coordinates": [
          106.184492,
          -6.120401
        ]
      }
    },
    {
      "type": "Feature",
      "properties": {
        "trip_id": 30,
        "kode_kendaraan": "K-04",
        "trayek": "Serang \u2013 Cilegon",
        "jenis": "Titik Akhir",
        "hari": "Kamis",
        "tanggal": "06-03-2025",
        "waktu": "06-03-2025 18:25",
        "jarak_km": 28.69,
        "liter_total": 11.57,
        "biaya_rp": 78676
      },
      "geometry": {
        "type": "Point",
        "coordinates": [
          106.024787,
          -6.00289
        ]
      }
    },
    {
      "type": "Feature",
      "properties": {
        "trip_id": 31,
        "kode_kendaraan": "K-07",
        "trayek": "Serang \u2013 Anyer",
        "jenis": "Titik Awal",
        "hari": "Kamis",
        "tanggal": "06-03-2025",
        "waktu": "06-03-2025 04:47",
        "jarak_km": 38.88,
        "liter_total": 12.38,
        "biaya_rp": 84184
      },
      "geometry": {
        "type": "Point",
        "coordinates": [
          106.184492,
          -6.120401
        ]
      }
    },
    {
      "type": "Feature",
      "properties": {
        "trip_id": 31,
        "kode_kendaraan": "K-07",
        "trayek": "Serang \u2013 Anyer",
        "jenis": "Titik Akhir",
        "hari": "Kamis",
        "tanggal": "06-03-2025",
        "waktu": "06-03-2025 05:46",
        "jarak_km": 38.88,
        "liter_total": 12.38,
        "biaya_rp": 84184
      },
      "geometry": {
        "type": "Point",
        "coordinates": [
          105.922737,
          -6.053216
        ]
      }
    },
    {
      "type": "Feature",
      "properties": {
        "trip_id": 32,
        "kode_kendaraan": "K-07",
        "trayek": "Serang \u2013 Anyer",
        "jenis": "Titik Awal",
        "hari": "Kamis",
        "tanggal": "06-03-2025",
        "waktu": "06-03-2025 10:16",
        "jarak_km": 38.54,
        "liter_total": 13.7,
        "biaya_rp": 93160
      },
      "geometry": {
        "type": "Point",
        "coordinates": [
          105.922737,
          -6.053216
        ]
      }
    },
    {
      "type": "Feature",
      "properties": {
        "trip_id": 32,
        "kode_kendaraan": "K-07",
        "trayek": "Serang \u2013 Anyer",
        "jenis": "Titik Akhir",
        "hari": "Kamis",
        "tanggal": "06-03-2025",
        "waktu": "06-03-2025 11:32",
        "jarak_km": 38.54,
        "liter_total": 13.7,
        "biaya_rp": 93160
      },
      "geometry": {
        "type": "Point",
        "coordinates": [
          106.184492,
          -6.120401
        ]
      }
    },
    {
      "type": "Feature",
      "properties": {
        "trip_id": 33,
        "kode_kendaraan": "K-07",
        "trayek": "Serang \u2013 Anyer",
        "jenis": "Titik Awal",
        "hari": "Kamis",
        "tanggal": "06-03-2025",
        "waktu": "06-03-2025 16:47",
        "jarak_km": 38.56,
        "liter_total": 15.83,
        "biaya_rp": 107644
      },
      "geometry": {
        "type": "Point",
        "coordinates": [
          106.184492,
          -6.120401
        ]
      }
    },
    {
      "type": "Feature",
      "properties": {
        "trip_id": 33,
        "kode_kendaraan": "K-07",
        "trayek": "Serang \u2013 Anyer",
        "jenis": "Titik Akhir",
        "hari": "Kamis",
        "tanggal": "06-03-2025",
        "waktu": "06-03-2025 19:13",
        "jarak_km": 38.56,
        "liter_total": 15.83,
        "biaya_rp": 107644
      },
      "geometry": {
        "type": "Point",
        "coordinates": [
          105.922737,
          -6.053216
        ]
      }
    },
    {
      "type": "Feature",
      "properties": {
        "trip_id": 34,
        "kode_kendaraan": "K-12",
        "trayek": "Cilegon \u2013 Merak",
        "jenis": "Titik Awal",
        "hari": "Kamis",
        "tanggal": "06-03-2025",
        "waktu": "06-03-2025 04:50",
        "jarak_km": 11.13,
        "liter_total": 3.58,
        "biaya_rp": 24344
      },
      "geometry": {
        "type": "Point",
        "coordinates": [
          106.024787,
          -6.00289
        ]
      }
    },
    {
      "type": "Feature",
      "properties": {
        "trip_id": 34,
        "kode_kendaraan": "K-12",
        "trayek": "Cilegon \u2013 Merak",
        "jenis": "Titik Akhir",
        "hari": "Kamis",
        "tanggal": "06-03-2025",
        "waktu": "06-03-2025 05:11",
        "jarak_km": 11.13,
        "liter_total": 3.58,
        "biaya_rp": 24344
      },
      "geometry": {
        "type": "Point",
        "coordinates": [
          105.99756,
          -5.932069
        ]
      }
    },
    {
      "type": "Feature",
      "properties": {
        "trip_id": 35,
        "kode_kendaraan": "K-12",
        "trayek": "Cilegon \u2013 Merak",
        "jenis": "Titik Awal",
        "hari": "Kamis",
        "tanggal": "06-03-2025",
        "waktu": "06-03-2025 10:26",
        "jarak_km": 11.4,
        "liter_total": 4.05,
        "biaya_rp": 27540
      },
      "geometry": {
        "type": "Point",
        "coordinates": [
          105.99756,
          -5.932069
        ]
      }
    },
    {
      "type": "Feature",
      "properties": {
        "trip_id": 35,
        "kode_kendaraan": "K-12",
        "trayek": "Cilegon \u2013 Merak",
        "jenis": "Titik Akhir",
        "hari": "Kamis",
        "tanggal": "06-03-2025",
        "waktu": "06-03-2025 10:55",
        "jarak_km": 11.4,
        "liter_total": 4.05,
        "biaya_rp": 27540
      },
      "geometry": {
        "type": "Point",
        "coordinates": [
          106.024787,
          -6.00289
        ]
      }
    },
    {
      "type": "Feature",
      "properties": {
        "trip_id": 36,
        "kode_kendaraan": "K-12",
        "trayek": "Cilegon \u2013 Merak",
        "jenis": "Titik Awal",
        "hari": "Kamis",
        "tanggal": "06-03-2025",
        "waktu": "06-03-2025 16:53",
        "jarak_km": 11.27,
        "liter_total": 4.6,
        "biaya_rp": 31280
      },
      "geometry": {
        "type": "Point",
        "coordinates": [
          106.024787,
          -6.00289
        ]
      }
    },
    {
      "type": "Feature",
      "properties": {
        "trip_id": 36,
        "kode_kendaraan": "K-12",
        "trayek": "Cilegon \u2013 Merak",
        "jenis": "Titik Akhir",
        "hari": "Kamis",
        "tanggal": "06-03-2025",
        "waktu": "06-03-2025 18:00",
        "jarak_km": 11.27,
        "liter_total": 4.6,
        "biaya_rp": 31280
      },
      "geometry": {
        "type": "Point",
        "coordinates": [
          105.99756,
          -5.932069
        ]
      }
    },
    {
      "type": "Feature",
      "properties": {
        "trip_id": 37,
        "kode_kendaraan": "K-04",
        "trayek": "Serang \u2013 Cilegon",
        "jenis": "Titik Awal",
        "hari": "Jumat",
        "tanggal": "07-03-2025",
        "waktu": "07-03-2025 04:59",
        "jarak_km": 28.69,
        "liter_total": 9.24,
        "biaya_rp": 62832
      },
      "geometry": {
        "type": "Point",
        "coordinates": [
          106.184492,
          -6.120401
        ]
      }
    },
    {
      "type": "Feature",
      "properties": {
        "trip_id": 37,
        "kode_kendaraan": "K-04",
        "trayek": "Serang \u2013 Cilegon",
        "jenis": "Titik Akhir",
        "hari": "Jumat",
        "tanggal": "07-03-2025",
        "waktu": "07-03-2025 05:42",
        "jarak_km": 28.69,
        "liter_total": 9.24,
        "biaya_rp": 62832
      },
      "geometry": {
        "type": "Point",
        "coordinates": [
          106.024787,
          -6.00289
        ]
      }
    },
    {
      "type": "Feature",
      "properties": {
        "trip_id": 38,
        "kode_kendaraan": "K-04",
        "trayek": "Serang \u2013 Cilegon",
        "jenis": "Titik Awal",
        "hari": "Jumat",
        "tanggal": "07-03-2025",
        "waktu": "07-03-2025 10:30",
        "jarak_km": 28.72,
        "liter_total": 10.4,
        "biaya_rp": 70720
      },
      "geometry": {
        "type": "Point",
        "coordinates": [
          106.024787,
          -6.00289
        ]
      }
    },
    {
      "type": "Feature",
      "properties": {
        "trip_id": 38,
        "kode_kendaraan": "K-04",
        "trayek": "Serang \u2013 Cilegon",
        "jenis": "Titik Akhir",
        "hari": "Jumat",
        "tanggal": "07-03-2025",
        "waktu": "07-03-2025 11:27",
        "jarak_km": 28.72,
        "liter_total": 10.4,
        "biaya_rp": 70720
      },
      "geometry": {
        "type": "Point",
        "coordinates": [
          106.184492,
          -6.120401
        ]
      }
    },
    {
      "type": "Feature",
      "properties": {
        "trip_id": 39,
        "kode_kendaraan": "K-04",
        "trayek": "Serang \u2013 Cilegon",
        "jenis": "Titik Awal",
        "hari": "Jumat",
        "tanggal": "07-03-2025",
        "waktu": "07-03-2025 16:31",
        "jarak_km": 28.47,
        "liter_total": 11.66,
        "biaya_rp": 79288
      },
      "geometry": {
        "type": "Point",
        "coordinates": [
          106.024787,
          -6.00289
        ]
      }
    },
    {
      "type": "Feature",
      "properties": {
        "trip_id": 39,
        "kode_kendaraan": "K-04",
        "trayek": "Serang \u2013 Cilegon",
        "jenis": "Titik Akhir",
        "hari": "Jumat",
        "tanggal": "07-03-2025",
        "waktu": "07-03-2025 18:19",
        "jarak_km": 28.47,
        "liter_total": 11.66,
        "biaya_rp": 79288
      },
      "geometry": {
        "type": "Point",
        "coordinates": [
          106.184492,
          -6.120401
        ]
      }
    },
    {
      "type": "Feature",
      "properties": {
        "trip_id": 40,
        "kode_kendaraan": "K-07",
        "trayek": "Serang \u2013 Anyer",
        "jenis": "Titik Awal",
        "hari": "Jumat",
        "tanggal": "07-03-2025",
        "waktu": "07-03-2025 04:48",
        "jarak_km": 38.73,
        "liter_total": 12.1,
        "biaya_rp": 82280
      },
      "geometry": {
        "type": "Point",
        "coordinates": [
          106.184492,
          -6.120401
        ]
      }
    },
    {
      "type": "Feature",
      "properties": {
        "trip_id": 40,
        "kode_kendaraan": "K-07",
        "trayek": "Serang \u2013 Anyer",
        "jenis": "Titik Akhir",
        "hari": "Jumat",
        "tanggal": "07-03-2025",
        "waktu": "07-03-2025 05:48",
        "jarak_km": 38.73,
        "liter_total": 12.1,
        "biaya_rp": 82280
      },
      "geometry": {
        "type": "Point",
        "coordinates": [
          105.922737,
          -6.053216
        ]
      }
    },
    {
      "type": "Feature",
      "properties": {
        "trip_id": 41,
        "kode_kendaraan": "K-07",
        "trayek": "Serang \u2013 Anyer",
        "jenis": "Titik Awal",
        "hari": "Jumat",
        "tanggal": "07-03-2025",
        "waktu": "07-03-2025 10:11",
        "jarak_km": 38.61,
        "liter_total": 14.09,
        "biaya_rp": 95812
      },
      "geometry": {
        "type": "Point",
        "coordinates": [
          105.922737,
          -6.053216
        ]
      }
    },
    {
      "type": "Feature",
      "properties": {
        "trip_id": 41,
        "kode_kendaraan": "K-07",
        "trayek": "Serang \u2013 Anyer",
        "jenis": "Titik Akhir",
        "hari": "Jumat",
        "tanggal": "07-03-2025",
        "waktu": "07-03-2025 11:27",
        "jarak_km": 38.61,
        "liter_total": 14.09,
        "biaya_rp": 95812
      },
      "geometry": {
        "type": "Point",
        "coordinates": [
          106.184492,
          -6.120401
        ]
      }
    },
    {
      "type": "Feature",
      "properties": {
        "trip_id": 42,
        "kode_kendaraan": "K-07",
        "trayek": "Serang \u2013 Anyer",
        "jenis": "Titik Awal",
        "hari": "Jumat",
        "tanggal": "07-03-2025",
        "waktu": "07-03-2025 16:48",
        "jarak_km": 38.69,
        "liter_total": 14.91,
        "biaya_rp": 101388
      },
      "geometry": {
        "type": "Point",
        "coordinates": [
          105.922737,
          -6.053216
        ]
      }
    },
    {
      "type": "Feature",
      "properties": {
        "trip_id": 42,
        "kode_kendaraan": "K-07",
        "trayek": "Serang \u2013 Anyer",
        "jenis": "Titik Akhir",
        "hari": "Jumat",
        "tanggal": "07-03-2025",
        "waktu": "07-03-2025 19:15",
        "jarak_km": 38.69,
        "liter_total": 14.91,
        "biaya_rp": 101388
      },
      "geometry": {
        "type": "Point",
        "coordinates": [
          106.184492,
          -6.120401
        ]
      }
    },
    {
      "type": "Feature",
      "properties": {
        "trip_id": 43,
        "kode_kendaraan": "K-12",
        "trayek": "Cilegon \u2013 Merak",
        "jenis": "Titik Awal",
        "hari": "Jumat",
        "tanggal": "07-03-2025",
        "waktu": "07-03-2025 04:50",
        "jarak_km": 11.37,
        "liter_total": 3.64,
        "biaya_rp": 24752
      },
      "geometry": {
        "type": "Point",
        "coordinates": [
          106.024787,
          -6.00289
        ]
      }
    },
    {
      "type": "Feature",
      "properties": {
        "trip_id": 43,
        "kode_kendaraan": "K-12",
        "trayek": "Cilegon \u2013 Merak",
        "jenis": "Titik Akhir",
        "hari": "Jumat",
        "tanggal": "07-03-2025",
        "waktu": "07-03-2025 05:12",
        "jarak_km": 11.37,
        "liter_total": 3.64,
        "biaya_rp": 24752
      },
      "geometry": {
        "type": "Point",
        "coordinates": [
          105.99756,
          -5.932069
        ]
      }
    },
    {
      "type": "Feature",
      "properties": {
        "trip_id": 44,
        "kode_kendaraan": "K-12",
        "trayek": "Cilegon \u2013 Merak",
        "jenis": "Titik Awal",
        "hari": "Jumat",
        "tanggal": "07-03-2025",
        "waktu": "07-03-2025 10:28",
        "jarak_km": 11.22,
        "liter_total": 3.94,
        "biaya_rp": 26792
      },
      "geometry": {
        "type": "Point",
        "coordinates": [
          105.99756,
          -5.932069
        ]
      }
    },
    {
      "type": "Feature",
      "properties": {
        "trip_id": 44,
        "kode_kendaraan": "K-12",
        "trayek": "Cilegon \u2013 Merak",
        "jenis": "Titik Akhir",
        "hari": "Jumat",
        "tanggal": "07-03-2025",
        "waktu": "07-03-2025 10:56",
        "jarak_km": 11.22,
        "liter_total": 3.94,
        "biaya_rp": 26792
      },
      "geometry": {
        "type": "Point",
        "coordinates": [
          106.024787,
          -6.00289
        ]
      }
    },
    {
      "type": "Feature",
      "properties": {
        "trip_id": 45,
        "kode_kendaraan": "K-12",
        "trayek": "Cilegon \u2013 Merak",
        "jenis": "Titik Awal",
        "hari": "Jumat",
        "tanggal": "07-03-2025",
        "waktu": "07-03-2025 16:46",
        "jarak_km": 11.0,
        "liter_total": 4.49,
        "biaya_rp": 30532
      },
      "geometry": {
        "type": "Point",
        "coordinates": [
          105.99756,
          -5.932069
        ]
      }
    },
    {
      "type": "Feature",
      "properties": {
        "trip_id": 45,
        "kode_kendaraan": "K-12",
        "trayek": "Cilegon \u2013 Merak",
        "jenis": "Titik Akhir",
        "hari": "Jumat",
        "tanggal": "07-03-2025",
        "waktu": "07-03-2025 17:49",
        "jarak_km": 11.0,
        "liter_total": 4.49,
        "biaya_rp": 30532
      },
      "geometry": {
        "type": "Point",
        "coordinates": [
          106.024787,
          -6.00289
        ]
      }
    },
    {
      "type": "Feature",
      "properties": {
        "trip_id": 46,
        "kode_kendaraan": "K-04",
        "trayek": "Serang \u2013 Cilegon",
        "jenis": "Titik Awal",
        "hari": "Sabtu",
        "tanggal": "08-03-2025",
        "waktu": "08-03-2025 04:46",
        "jarak_km": 28.79,
        "liter_total": 9.24,
        "biaya_rp": 62832
      },
      "geometry": {
        "type": "Point",
        "coordinates": [
          106.184492,
          -6.120401
        ]
      }
    },
    {
      "type": "Feature",
      "properties": {
        "trip_id": 46,
        "kode_kendaraan": "K-04",
        "trayek": "Serang \u2013 Cilegon",
        "jenis": "Titik Akhir",
        "hari": "Sabtu",
        "tanggal": "08-03-2025",
        "waktu": "08-03-2025 05:29",
        "jarak_km": 28.79,
        "liter_total": 9.24,
        "biaya_rp": 62832
      },
      "geometry": {
        "type": "Point",
        "coordinates": [
          106.024787,
          -6.00289
        ]
      }
    },
    {
      "type": "Feature",
      "properties": {
        "trip_id": 47,
        "kode_kendaraan": "K-04",
        "trayek": "Serang \u2013 Cilegon",
        "jenis": "Titik Awal",
        "hari": "Sabtu",
        "tanggal": "08-03-2025",
        "waktu": "08-03-2025 10:26",
        "jarak_km": 28.77,
        "liter_total": 10.17,
        "biaya_rp": 69156
      },
      "geometry": {
        "type": "Point",
        "coordinates": [
          106.024787,
          -6.00289
        ]
      }
    },
    {
      "type": "Feature",
      "properties": {
        "trip_id": 47,
        "kode_kendaraan": "K-04",
        "trayek": "Serang \u2013 Cilegon",
        "jenis": "Titik Akhir",
        "hari": "Sabtu",
        "tanggal": "08-03-2025",
        "waktu": "08-03-2025 11:24",
        "jarak_km": 28.77,
        "liter_total": 10.17,
        "biaya_rp": 69156
      },
      "geometry": {
        "type": "Point",
        "coordinates": [
          106.184492,
          -6.120401
        ]
      }
    },
    {
      "type": "Feature",
      "properties": {
        "trip_id": 48,
        "kode_kendaraan": "K-04",
        "trayek": "Serang \u2013 Cilegon",
        "jenis": "Titik Awal",
        "hari": "Sabtu",
        "tanggal": "08-03-2025",
        "waktu": "08-03-2025 16:31",
        "jarak_km": 28.76,
        "liter_total": 11.46,
        "biaya_rp": 77928
      },
      "geometry": {
        "type": "Point",
        "coordinates": [
          106.184492,
          -6.120401
        ]
      }
    },
    {
      "type": "Feature",
      "properties": {
        "trip_id": 48,
        "kode_kendaraan": "K-04",
        "trayek": "Serang \u2013 Cilegon",
        "jenis": "Titik Akhir",
        "hari": "Sabtu",
        "tanggal": "08-03-2025",
        "waktu": "08-03-2025 18:24",
        "jarak_km": 28.76,
        "liter_total": 11.46,
        "biaya_rp": 77928
      },
      "geometry": {
        "type": "Point",
        "coordinates": [
          106.024787,
          -6.00289
        ]
      }
    },
    {
      "type": "Feature",
      "properties": {
        "trip_id": 49,
        "kode_kendaraan": "K-07",
        "trayek": "Serang \u2013 Anyer",
        "jenis": "Titik Awal",
        "hari": "Sabtu",
        "tanggal": "08-03-2025",
        "waktu": "08-03-2025 04:53",
        "jarak_km": 38.75,
        "liter_total": 12.11,
        "biaya_rp": 82348
      },
      "geometry": {
        "type": "Point",
        "coordinates": [
          106.184492,
          -6.120401
        ]
      }
    },
    {
      "type": "Feature",
      "properties": {
        "trip_id": 49,
        "kode_kendaraan": "K-07",
        "trayek": "Serang \u2013 Anyer",
        "jenis": "Titik Akhir",
        "hari": "Sabtu",
        "tanggal": "08-03-2025",
        "waktu": "08-03-2025 05:54",
        "jarak_km": 38.75,
        "liter_total": 12.11,
        "biaya_rp": 82348
      },
      "geometry": {
        "type": "Point",
        "coordinates": [
          105.922737,
          -6.053216
        ]
      }
    },
    {
      "type": "Feature",
      "properties": {
        "trip_id": 50,
        "kode_kendaraan": "K-07",
        "trayek": "Serang \u2013 Anyer",
        "jenis": "Titik Awal",
        "hari": "Sabtu",
        "tanggal": "08-03-2025",
        "waktu": "08-03-2025 10:22",
        "jarak_km": 38.84,
        "liter_total": 13.9,
        "biaya_rp": 94520
      },
      "geometry": {
        "type": "Point",
        "coordinates": [
          105.922737,
          -6.053216
        ]
      }
    },
    {
      "type": "Feature",
      "properties": {
        "trip_id": 50,
        "kode_kendaraan": "K-07",
        "trayek": "Serang \u2013 Anyer",
        "jenis": "Titik Akhir",
        "hari": "Sabtu",
        "tanggal": "08-03-2025",
        "waktu": "08-03-2025 11:41",
        "jarak_km": 38.84,
        "liter_total": 13.9,
        "biaya_rp": 94520
      },
      "geometry": {
        "type": "Point",
        "coordinates": [
          106.184492,
          -6.120401
        ]
      }
    },
    {
      "type": "Feature",
      "properties": {
        "trip_id": 51,
        "kode_kendaraan": "K-07",
        "trayek": "Serang \u2013 Anyer",
        "jenis": "Titik Awal",
        "hari": "Sabtu",
        "tanggal": "08-03-2025",
        "waktu": "08-03-2025 16:40",
        "jarak_km": 38.76,
        "liter_total": 16.57,
        "biaya_rp": 112676
      },
      "geometry": {
        "type": "Point",
        "coordinates": [
          106.184492,
          -6.120401
        ]
      }
    },
    {
      "type": "Feature",
      "properties": {
        "trip_id": 51,
        "kode_kendaraan": "K-07",
        "trayek": "Serang \u2013 Anyer",
        "jenis": "Titik Akhir",
        "hari": "Sabtu",
        "tanggal": "08-03-2025",
        "waktu": "08-03-2025 19:05",
        "jarak_km": 38.76,
        "liter_total": 16.57,
        "biaya_rp": 112676
      },
      "geometry": {
        "type": "Point",
        "coordinates": [
          105.922737,
          -6.053216
        ]
      }
    },
    {
      "type": "Feature",
      "properties": {
        "trip_id": 52,
        "kode_kendaraan": "K-12",
        "trayek": "Cilegon \u2013 Merak",
        "jenis": "Titik Awal",
        "hari": "Sabtu",
        "tanggal": "08-03-2025",
        "waktu": "08-03-2025 04:45",
        "jarak_km": 11.27,
        "liter_total": 3.55,
        "biaya_rp": 24140
      },
      "geometry": {
        "type": "Point",
        "coordinates": [
          106.024787,
          -6.00289
        ]
      }
    },
    {
      "type": "Feature",
      "properties": {
        "trip_id": 52,
        "kode_kendaraan": "K-12",
        "trayek": "Cilegon \u2013 Merak",
        "jenis": "Titik Akhir",
        "hari": "Sabtu",
        "tanggal": "08-03-2025",
        "waktu": "08-03-2025 05:08",
        "jarak_km": 11.27,
        "liter_total": 3.55,
        "biaya_rp": 24140
      },
      "geometry": {
        "type": "Point",
        "coordinates": [
          105.99756,
          -5.932069
        ]
      }
    },
    {
      "type": "Feature",
      "properties": {
        "trip_id": 53,
        "kode_kendaraan": "K-12",
        "trayek": "Cilegon \u2013 Merak",
        "jenis": "Titik Awal",
        "hari": "Sabtu",
        "tanggal": "08-03-2025",
        "waktu": "08-03-2025 10:11",
        "jarak_km": 11.33,
        "liter_total": 4.03,
        "biaya_rp": 27404
      },
      "geometry": {
        "type": "Point",
        "coordinates": [
          105.99756,
          -5.932069
        ]
      }
    },
    {
      "type": "Feature",
      "properties": {
        "trip_id": 53,
        "kode_kendaraan": "K-12",
        "trayek": "Cilegon \u2013 Merak",
        "jenis": "Titik Akhir",
        "hari": "Sabtu",
        "tanggal": "08-03-2025",
        "waktu": "08-03-2025 10:40",
        "jarak_km": 11.33,
        "liter_total": 4.03,
        "biaya_rp": 27404
      },
      "geometry": {
        "type": "Point",
        "coordinates": [
          106.024787,
          -6.00289
        ]
      }
    },
    {
      "type": "Feature",
      "properties": {
        "trip_id": 54,
        "kode_kendaraan": "K-12",
        "trayek": "Cilegon \u2013 Merak",
        "jenis": "Titik Awal",
        "hari": "Sabtu",
        "tanggal": "08-03-2025",
        "waktu": "08-03-2025 16:43",
        "jarak_km": 11.37,
        "liter_total": 4.84,
        "biaya_rp": 32912
      },
      "geometry": {
        "type": "Point",
        "coordinates": [
          106.024787,
          -6.00289
        ]
      }
    },
    {
      "type": "Feature",
      "properties": {
        "trip_id": 54,
        "kode_kendaraan": "K-12",
        "trayek": "Cilegon \u2013 Merak",
        "jenis": "Titik Akhir",
        "hari": "Sabtu",
        "tanggal": "08-03-2025",
        "waktu": "08-03-2025 17:50",
        "jarak_km": 11.37,
        "liter_total": 4.84,
        "biaya_rp": 32912
      },
      "geometry": {
        "type": "Point",
        "coordinates": [
          105.99756,
          -5.932069
        ]
      }
    },
    {
      "type": "Feature",
      "properties": {
        "trip_id": 55,
        "kode_kendaraan": "K-04",
        "trayek": "Serang \u2013 Cilegon",
        "jenis": "Titik Awal",
        "hari": "Minggu",
        "tanggal": "09-03-2025",
        "waktu": "09-03-2025 04:55",
        "jarak_km": 28.78,
        "liter_total": 9.06,
        "biaya_rp": 61608
      },
      "geometry": {
        "type": "Point",
        "coordinates": [
          106.184492,
          -6.120401
        ]
      }
    },
    {
      "type": "Feature",
      "properties": {
        "trip_id": 55,
        "kode_kendaraan": "K-04",
        "trayek": "Serang \u2013 Cilegon",
        "jenis": "Titik Akhir",
        "hari": "Minggu",
        "tanggal": "09-03-2025",
        "waktu": "09-03-2025 05:38",
        "jarak_km": 28.78,
        "liter_total": 9.06,
        "biaya_rp": 61608
      },
      "geometry": {
        "type": "Point",
        "coordinates": [
          106.024787,
          -6.00289
        ]
      }
    },
    {
      "type": "Feature",
      "properties": {
        "trip_id": 56,
        "kode_kendaraan": "K-04",
        "trayek": "Serang \u2013 Cilegon",
        "jenis": "Titik Awal",
        "hari": "Minggu",
        "tanggal": "09-03-2025",
        "waktu": "09-03-2025 10:18",
        "jarak_km": 28.67,
        "liter_total": 10.01,
        "biaya_rp": 68068
      },
      "geometry": {
        "type": "Point",
        "coordinates": [
          106.024787,
          -6.00289
        ]
      }
    },
    {
      "type": "Feature",
      "properties": {
        "trip_id": 56,
        "kode_kendaraan": "K-04",
        "trayek": "Serang \u2013 Cilegon",
        "jenis": "Titik Akhir",
        "hari": "Minggu",
        "tanggal": "09-03-2025",
        "waktu": "09-03-2025 11:12",
        "jarak_km": 28.67,
        "liter_total": 10.01,
        "biaya_rp": 68068
      },
      "geometry": {
        "type": "Point",
        "coordinates": [
          106.184492,
          -6.120401
        ]
      }
    },
    {
      "type": "Feature",
      "properties": {
        "trip_id": 57,
        "kode_kendaraan": "K-04",
        "trayek": "Serang \u2013 Cilegon",
        "jenis": "Titik Awal",
        "hari": "Minggu",
        "tanggal": "09-03-2025",
        "waktu": "09-03-2025 16:36",
        "jarak_km": 28.61,
        "liter_total": 11.16,
        "biaya_rp": 75888
      },
      "geometry": {
        "type": "Point",
        "coordinates": [
          106.024787,
          -6.00289
        ]
      }
    },
    {
      "type": "Feature",
      "properties": {
        "trip_id": 57,
        "kode_kendaraan": "K-04",
        "trayek": "Serang \u2013 Cilegon",
        "jenis": "Titik Akhir",
        "hari": "Minggu",
        "tanggal": "09-03-2025",
        "waktu": "09-03-2025 18:18",
        "jarak_km": 28.61,
        "liter_total": 11.16,
        "biaya_rp": 75888
      },
      "geometry": {
        "type": "Point",
        "coordinates": [
          106.184492,
          -6.120401
        ]
      }
    },
    {
      "type": "Feature",
      "properties": {
        "trip_id": 58,
        "kode_kendaraan": "K-07",
        "trayek": "Serang \u2013 Anyer",
        "jenis": "Titik Awal",
        "hari": "Minggu",
        "tanggal": "09-03-2025",
        "waktu": "09-03-2025 04:45",
        "jarak_km": 38.87,
        "liter_total": 12.27,
        "biaya_rp": 83436
      },
      "geometry": {
        "type": "Point",
        "coordinates": [
          106.184492,
          -6.120401
        ]
      }
    },
    {
      "type": "Feature",
      "properties": {
        "trip_id": 58,
        "kode_kendaraan": "K-07",
        "trayek": "Serang \u2013 Anyer",
        "jenis": "Titik Akhir",
        "hari": "Minggu",
        "tanggal": "09-03-2025",
        "waktu": "09-03-2025 05:46",
        "jarak_km": 38.87,
        "liter_total": 12.27,
        "biaya_rp": 83436
      },
      "geometry": {
        "type": "Point",
        "coordinates": [
          105.922737,
          -6.053216
        ]
      }
    },
    {
      "type": "Feature",
      "properties": {
        "trip_id": 59,
        "kode_kendaraan": "K-07",
        "trayek": "Serang \u2013 Anyer",
        "jenis": "Titik Awal",
        "hari": "Minggu",
        "tanggal": "09-03-2025",
        "waktu": "09-03-2025 10:05",
        "jarak_km": 38.67,
        "liter_total": 14.2,
        "biaya_rp": 96560
      },
      "geometry": {
        "type": "Point",
        "coordinates": [
          105.922737,
          -6.053216
        ]
      }
    },
    {
      "type": "Feature",
      "properties": {
        "trip_id": 59,
        "kode_kendaraan": "K-07",
        "trayek": "Serang \u2013 Anyer",
        "jenis": "Titik Akhir",
        "hari": "Minggu",
        "tanggal": "09-03-2025",
        "waktu": "09-03-2025 11:25",
        "jarak_km": 38.67,
        "liter_total": 14.2,
        "biaya_rp": 96560
      },
      "geometry": {
        "type": "Point",
        "coordinates": [
          106.184492,
          -6.120401
        ]
      }
    },
    {
      "type": "Feature",
      "properties": {
        "trip_id": 60,
        "kode_kendaraan": "K-07",
        "trayek": "Serang \u2013 Anyer",
        "jenis": "Titik Awal",
        "hari": "Minggu",
        "tanggal": "09-03-2025",
        "waktu": "09-03-2025 16:30",
        "jarak_km": 38.82,
        "liter_total": 16.15,
        "biaya_rp": 109820
      },
      "geometry": {
        "type": "Point",
        "coordinates": [
          105.922737,
          -6.053216
        ]
      }
    },
    {
      "type": "Feature",
      "properties": {
        "trip_id": 60,
        "kode_kendaraan": "K-07",
        "trayek": "Serang \u2013 Anyer",
        "jenis": "Titik Akhir",
        "hari": "Minggu",
        "tanggal": "09-03-2025",
        "waktu": "09-03-2025 18:57",
        "jarak_km": 38.82,
        "liter_total": 16.15,
        "biaya_rp": 109820
      },
      "geometry": {
        "type": "Point",
        "coordinates": [
          106.184492,
          -6.120401
        ]
      }
    },
    {
      "type": "Feature",
      "properties": {
        "trip_id": 61,
        "kode_kendaraan": "K-12",
        "trayek": "Cilegon \u2013 Merak",
        "jenis": "Titik Awal",
        "hari": "Minggu",
        "tanggal": "09-03-2025",
        "waktu": "09-03-2025 04:47",
        "jarak_km": 11.12,
        "liter_total": 3.48,
        "biaya_rp": 23664
      },
      "geometry": {
        "type": "Point",
        "coordinates": [
          106.024787,
          -6.00289
        ]
      }
    },
    {
      "type": "Feature",
      "properties": {
        "trip_id": 61,
        "kode_kendaraan": "K-12",
        "trayek": "Cilegon \u2013 Merak",
        "jenis": "Titik Akhir",
        "hari": "Minggu",
        "tanggal": "09-03-2025",
        "waktu": "09-03-2025 05:08",
        "jarak_km": 11.12,
        "liter_total": 3.48,
        "biaya_rp": 23664
      },
      "geometry": {
        "type": "Point",
        "coordinates": [
          105.99756,
          -5.932069
        ]
      }
    },
    {
      "type": "Feature",
      "properties": {
        "trip_id": 62,
        "kode_kendaraan": "K-12",
        "trayek": "Cilegon \u2013 Merak",
        "jenis": "Titik Awal",
        "hari": "Minggu",
        "tanggal": "09-03-2025",
        "waktu": "09-03-2025 10:09",
        "jarak_km": 11.34,
        "liter_total": 4.01,
        "biaya_rp": 27268
      },
      "geometry": {
        "type": "Point",
        "coordinates": [
          105.99756,
          -5.932069
        ]
      }
    },
    {
      "type": "Feature",
      "properties": {
        "trip_id": 62,
        "kode_kendaraan": "K-12",
        "trayek": "Cilegon \u2013 Merak",
        "jenis": "Titik Akhir",
        "hari": "Minggu",
        "tanggal": "09-03-2025",
        "waktu": "09-03-2025 10:38",
        "jarak_km": 11.34,
        "liter_total": 4.01,
        "biaya_rp": 27268
      },
      "geometry": {
        "type": "Point",
        "coordinates": [
          106.024787,
          -6.00289
        ]
      }
    },
    {
      "type": "Feature",
      "properties": {
        "trip_id": 63,
        "kode_kendaraan": "K-12",
        "trayek": "Cilegon \u2013 Merak",
        "jenis": "Titik Awal",
        "hari": "Minggu",
        "tanggal": "09-03-2025",
        "waktu": "09-03-2025 16:31",
        "jarak_km": 11.29,
        "liter_total": 4.57,
        "biaya_rp": 31076
      },
      "geometry": {
        "type": "Point",
        "coordinates": [
          105.99756,
          -5.932069
        ]
      }
    },
    {
      "type": "Feature",
      "properties": {
        "trip_id": 63,
        "kode_kendaraan": "K-12",
        "trayek": "Cilegon \u2013 Merak",
        "jenis": "Titik Akhir",
        "hari": "Minggu",
        "tanggal": "09-03-2025",
        "waktu": "09-03-2025 17:36",
        "jarak_km": 11.29,
        "liter_total": 4.57,
        "biaya_rp": 31076
      },
      "geometry": {
        "type": "Point",
        "coordinates": [
          106.024787,
          -6.00289
        ]
      }
    }
  ]
}