{"type": "FeatureCollection", "name": "rute", "crs": {"type": "name", "properties": {"name": "urn:ogc:def:crs:OGC:1.3:CRS84"}}, "features": [{"type": "Feature", "properties": {"trip_id": 1, "nama": "Trip 1", "kendaraan": "Truk tangki", "kode_kendaraan": "K-04", "trayek": "Serang – Cilegon", "arah": "Serang ke Cilegon", "hari": "Senin", "tanggal": "03-03-2025", "jam_mulai": "04:55", "jam_selesai": "05:34", "jam_berangkat": 4, "durasi_menit": 39.5, "kecepatan_rata": 43.6, "kecepatan_maks": 53.7, "jumlah_titik": 80, "jarak_km": 28.69, "liter_total": 9.28, "liter_jalan": 9.28, "liter_idle": 0.0, "menit_idle": 0.0, "liter_per_100km": 32.34, "km_per_liter": 3.09, "biaya_rp": 63075, "liter_boros": 0.31, "biaya_boros_rp": 2117, "jenis_bbm": "Biosolar", "harga_per_liter": 6800, "malam": true}, "geometry": {"type": "LineString", "coordinates": [[106.184492, -6.120401], [106.181548, -6.119611], [106.182376, -6.116769], [106.183954, -6.113691], [106.181977, -6.111233], [106.174104, -6.10291], [106.171446, -6.100201], [106.169039, -6.098373], [106.166806, -6.096714], [106.161552, -6.094054], [106.140026, -6.086671], [106.137283, -6.085348], [106.134648, -6.082823], [106.122219, -6.059393], [106.11786, -6.052352], [106.115439, -6.049578], [106.108113, -6.042891], [106.10554, -6.04026], [106.102019, -6.035384], [106.097174, -6.027647], [106.093712, -6.023414], [106.090738, -6.022276], [106.087646, -6.024204], [106.085761, -6.025735], [106.084733, -6.031754], [106.082962, -6.034152], [106.080289, -6.032623], [106.077762, -6.030743], [106.066922, -6.023674], [106.061123, -6.020827], [106.051754, -6.016789], [106.048787, -6.015214], [106.044116, -6.012079], [106.041972, -6.010297], [106.040627, -6.007588], [106.031408, -5.994642], [106.02903, -5.99348], [106.027244, -5.995467], [106.024587, -5.995937], [106.022612, -5.997503], [106.022552, -6.001174], [106.024778, -6.002694], [106.02581, -6.00283], [106.024787, -6.00289]]}}, {"type": "Feature", "properties": {"trip_id": 2, "nama": "Trip 2", "kendaraan": "Truk tangki", "kode_kendaraan": "K-04", "trayek": "Serang – Cilegon", "arah": "Cilegon ke Serang", "hari": "Senin", "tanggal": "03-03-2025", "jam_mulai": "10:08", "jam_selesai": "10:59", "jam_berangkat": 10, "durasi_menit": 51.0, "kecepatan_rata": 33.6, "kecepatan_maks": 38.2, "jumlah_titik": 103, "jarak_km": 28.54, "liter_total": 9.88, "liter_jalan": 9.88, "liter_idle": 0.0, "menit_idle": 0.0, "liter_per_100km": 34.62, "km_per_liter": 2.89, "biaya_rp": 67184, "liter_boros": 0.96, "biaya_boros_rp": 6540, "jenis_bbm": "Biosolar", "harga_per_liter": 6800, "malam": false}, "geometry": {"type": "LineString", "coordinates": [[106.026653, -6.002766], [106.024308, -6.002676], [106.022543, -6.001667], [106.022626, -5.996681], [106.024653, -5.995936], [106.027357, -5.995389], [106.029116, -5.993477], [106.031221, -5.994466], [106.03304, -5.99663], [106.035643, -6.000768], [106.040091, -6.006641], [106.040981, -6.009176], [106.042831, -6.011071], [106.046951, -6.014053], [106.050635, -6.016294], [106.06273, -6.02156], [106.066963, -6.023695], [106.081452, -6.033373], [106.083539, -6.033751], [106.08501, -6.031291], [106.085638, -6.026695], [106.086326, -6.024901], [106.088769, -6.023611], [106.091124, -6.022006], [106.093299, -6.022945], [106.096396, -6.026605], [106.102558, -6.036245], [106.10547, -6.040166], [106.107076, -6.041956], [106.116239, -6.050391], [106.119199, -6.054304], [106.121958, -6.058902], [106.133818, -6.081258], [106.13513, -6.083355], [106.137021, -6.085212], [106.139398, -6.08645], [106.160376, -6.093651], [106.162851, -6.094693], [106.167348, -6.097088], [106.171177, -6.099997], [106.17294, -6.10169], [106.181231, -6.110384], [106.183032, -6.112544], [106.183911, -6.114672], [106.182285, -6.116921], [106.181603, -6.118983], [106.182478, -6.120438], [106.18849, -6.120327]]}}, {"type": "Feature", "properties": {"trip_id": 3, "nama": "Trip 3", "kendaraan": "Truk tangki", "kode_kendaraan": "K-04", "trayek": "Serang – Cilegon", "arah": "Cilegon ke Serang", "hari": "Senin", "tanggal": "03-03-2025", "jam_mulai": "16:53", "jam_selesai": "18:32", "jam_berangkat": 16, "durasi_menit": 99.0, "kecepatan_rata": 17.3, "kecepatan_maks": 24.3, "jumlah_titik": 199, "jarak_km": 28.57, "liter_total": 13.36, "liter_jalan": 13.32, "liter_idle": 0.04, "menit_idle": 1.0, "liter_per_100km": 46.74, "km_per_liter": 2.14, "biaya_rp": 90828, "liter_boros": 4.43, "biaya_boros_rp": 30106, "jenis_bbm": "Biosolar", "harga_per_liter": 6800, "malam": false}, "geometry": {"type": "LineString", "coordinates": [[106.026292, -6.002802], [106.022531, -6.002448], [106.022627, -5.996622], [106.023395, -5.99597], [106.026823, -5.995759], [106.028858, -5.993487], [106.030363, -5.993663], [106.032967, -5.996539], [106.035717, -6.000868], [106.039621, -6.005909], [106.040807, -6.008168], [106.04106, -6.009476], [106.04306, -6.011277], [106.047087, -6.014147], [106.050216, -6.016049], [106.0616, -6.021032], [106.067146, -6.023787], [106.077788, -6.030762], [106.080954, -6.033117], [106.08323, -6.034268], [106.085086, -6.030986], [106.085778, -6.025605], [106.086644, -6.024733], [106.089036, -6.023466], [106.090959, -6.022121], [106.092085, -6.022264], [106.093094, -6.02283], [106.097131, -6.027579], [106.102783, -6.036605], [106.106261, -6.041212], [106.114545, -6.048689], [106.117071, -6.051334], [106.118611, -6.053352], [106.121709, -6.058431], [106.134131, -6.081848], [106.13482, -6.083031], [106.136585, -6.084876], [106.139765, -6.086581], [106.162027, -6.094272], [106.167615, -6.097291], [106.17183, -6.100526], [106.181644, -6.11082], [106.183987, -6.113732], [106.18382, -6.114925], [106.18225, -6.11698], [106.181785, -6.118008], [106.181557, -6.119512], [106.181743, -6.120452], [106.18849, -6.120327]]}}]}
