{"type": "FeatureCollection", "name": "titik_ujung", "crs": {"type": "name", "properties": {"name": "urn:ogc:def:crs:OGC:1.3:CRS84"}}, "features": [{"type": "Feature", "properties": {"trip_id": 1, "jenis": "Titik Awal", "hari": "Senin", "waktu": "03-03-2025 04:55", "jarak_km": 28.69, "liter_total": 9.28, "biaya_rp": 63075}, "geometry": {"type": "Point", "coordinates": [106.184492, -6.120401]}}, {"type": "Feature", "properties": {"trip_id": 1, "jenis": "Titik Akhir", "hari": "Senin", "waktu": "03-03-2025 05:34", "jarak_km": 28.69, "liter_total": 9.28, "biaya_rp": 63075}, "geometry": {"type": "Point", "coordinates": [106.024787, -6.00289]}}, {"type": "Feature", "properties": {"trip_id": 2, "jenis": "Titik Awal", "hari": "Senin", "waktu": "03-03-2025 10:08", "jarak_km": 28.54, "liter_total": 9.88, "biaya_rp": 67184}, "geometry": {"type": "Point", "coordinates": [106.026653, -6.002766]}}, {"type": "Feature", "properties": {"trip_id": 2, "jenis": "Titik Akhir", "hari": "Senin", "waktu": "03-03-2025 10:59", "jarak_km": 28.54, "liter_total": 9.88, "biaya_rp": 67184}, "geometry": {"type": "Point", "coordinates": [106.18849, -6.120327]}}, {"type": "Feature", "properties": {"trip_id": 3, "jenis": "Titik Awal", "hari": "Senin", "waktu": "03-03-2025 16:53", "jarak_km": 28.57, "liter_total": 13.36, "biaya_rp": 90828}, "geometry": {"type": "Point", "coordinates": [106.026292, -6.002802]}}, {"type": "Feature", "properties": {"trip_id": 3, "jenis": "Titik Akhir", "hari": "Senin", "waktu": "03-03-2025 18:32", "jarak_km": 28.57, "liter_total": 13.36, "biaya_rp": 90828}, "geometry": {"type": "Point", "coordinates": [106.18849, -6.120327]}}]}
